$$SOE
2461295.500000000, A.D. 2026-Sep-12 00:00:00.0000, -3.083008833087780E+08, 3.092098382085680E+08, 2.058990805106272E+07,
2461302.500000000, A.D. 2026-Sep-19 00:00:00.0000, -3.163046334564024E+08, 3.024278084838027E+08, 2.092877628582253E+07,
2461309.500000000, A.D. 2026-Sep-26 00:00:00.0000, -3.241259730083094E+08, 2.954714542108712E+08, 2.125555232744060E+07,
2461316.500000000, A.D. 2026-Oct-03 00:00:00.0000, -3.317616402112981E+08, 2.883459331148933E+08, 2.157012986632533E+07,
2461323.500000000, A.D. 2026-Oct-10 00:00:00.0000, -3.392085218514017E+08, 2.810564298331184E+08, 2.187241095146456E+07,
2461330.500000000, A.D. 2026-Oct-17 00:00:00.0000, -3.464636513567536E+08, 2.736081518895292E+08, 2.216230583520137E+07,
2461337.500000000, A.D. 2026-Oct-24 00:00:00.0000, -3.535242068345768E+08, 2.660063257527070E+08, 2.243973280839066E+07,
2461344.500000000, A.D. 2026-Oct-31 00:00:00.0000, -3.603875089529482E+08, 2.582561929075001E+08, 2.270461801206733E+07,
2461351.500000000, A.D. 2026-Nov-07 00:00:00.0000, -3.670510183371826E+08, 2.503630060113010E+08, 2.295689520123267E+07,
2461358.500000000, A.D. 2026-Nov-14 00:00:00.0000, -3.735123322885679E+08, 2.423320260184308E+08, 2.319650551551583E+07,
2461365.500000000, A.D. 2026-Nov-21 00:00:00.0000, -3.797691826465256E+08, 2.341685209505370E+08, 2.342339747926216E+07,
2461372.500000000, A.D. 2026-Nov-28 00:00:00.0000, -3.858194358017465E+08, 2.258777633024053E+08, 2.363752707744882E+07,
2461379.500000000, A.D. 2026-Dec-05 00:00:00.0000, -3.916610912466229E+08, 2.174650254236140E+08, 2.383885752252866E+07,
2461386.500000000, A.D. 2026-Dec-12 00:00:00.0000, -3.972922785033651E+08, 2.089355759805621E+08, 2.402735895197079E+07,
2461393.500000000, A.D. 2026-Dec-19 00:00:00.0000, -4.027112543257794E+08, 2.002946775000937E+08, 2.420300823068699E+07,
2461400.500000000, A.D. 2026-Dec-26 00:00:00.0000, -4.079164003250030E+08, 1.915475841237159E+08, 2.436578880100814E+07,
2461407.500000000, A.D. 2027-Jan-02 00:00:00.0000, -4.129062207489466E+08, 1.826995393780712E+08, 2.451569053977229E+07,
2461414.500000000, A.D. 2027-Jan-09 00:00:00.0000, -4.176793403029785E+08, 1.737557739773995E+08, 2.465270961378084E+07,
2461421.500000000, A.D. 2027-Jan-16 00:00:00.0000, -4.222345019805532E+08, 1.647215036614331E+08, 2.477684833131517E+07,
2461428.500000000, A.D. 2027-Jan-23 00:00:00.0000, -4.265705648620960E+08, 1.556019270227066E+08, 2.488811498239174E+07,
2461435.500000000, A.D. 2027-Jan-30 00:00:00.0000, -4.306865016998494E+08, 1.464022232686017E+08, 2.498652364675572E+07,
2461442.500000000, A.D. 2027-Feb-06 00:00:00.0000, -4.345813958706709E+08, 1.371275502517991E+08, 2.507209395857707E+07,
2461449.500000000, A.D. 2027-Feb-13 00:00:00.0000, -4.382544381643581E+08, 1.277830439836112E+08, 2.514485096984858E+07,
2461456.500000000, A.D. 2027-Feb-20 00:00:00.0000, -4.417049257787976E+08, 1.183738188353122E+08, 2.520482526465780E+07,
2461463.500000000, A.D. 2027-Feb-27 00:00:00.0000, -4.449322621320503E+08, 1.089049652117598E+08, 2.525205293363670E+07,
2461470.500000000, A.D. 2027-Mar-06 00:00:00.0000, -4.479359544743993E+08, 9.938154661753537E+07, 2.528657528876992E+07,
2461477.500000000, A.D. 2027-Mar-13 00:00:00.0000, -4.507156108999195E+08, 8.980859815961163E+07, 2.530843863249857E+07,
2461484.500000000, A.D. 2027-Mar-20 00:00:00.0000, -4.532709378888962E+08, 8.019112564580591E+07, 2.531769411616370E+07,
2461491.500000000, A.D. 2027-Mar-27 00:00:00.0000, -4.556017381816892E+08, 7.053410472520925E+07, 2.531439762423142E+07,
2461498.500000000, A.D. 2027-Apr-03 00:00:00.0000, -4.577079087830151E+08, 6.084248001827134E+07, 2.529860966174326E+07,
2461505.500000000, A.D. 2027-Apr-10 00:00:00.0000, -4.595894390371361E+08, 5.112116425498620E+07, 2.527039524128529E+07,
2461512.500000000, A.D. 2027-Apr-17 00:00:00.0000, -4.612464087537280E+08, 4.137503740255169E+07, 2.522982376634775E+07,
2461519.500000000, A.D. 2027-Apr-24 00:00:00.0000, -4.626789863069233E+08, 3.160894571647139E+07, 2.517696889880331E+07,
2461526.500000000, A.D. 2027-May-01 00:00:00.0000, -4.638874264091585E+08, 2.182770073938724E+07, 2.511190838535184E+07,
2461533.500000000, A.D. 2027-May-08 00:00:00.0000, -4.648720672530054E+08, 1.203607899259236E+07, 2.503472387591370E+07,
2461540.500000000, A.D. 2027-May-15 00:00:00.0000, -4.656333285181081E+08, 2.238823309836368E+06, 2.494550094913142E+07,
2461547.500000000, A.D. 2027-May-22 00:00:00.0000, -4.661717118084168E+08, -7.559356782195626E+06, 2.484432927656872E+07,
2461554.500000000, A.D. 2027-May-29 00:00:00.0000, -4.664878001655442E+08, -1.735378710774968E+07, 2.473130249792432E+07,
2461561.500000000, A.D. 2027-Jun-05 00:00:00.0000, -4.665822557724486E+08, -2.713983018060865E+07, 2.460651798216083E+07,
2461568.500000000, A.D. 2027-Jun-12 00:00:00.0000, -4.664558178531006E+08, -3.691288540935356E+07, 2.447007669393045E+07,
2461575.500000000, A.D. 2027-Jun-19 00:00:00.0000, -4.661093010992626E+08, -4.666838910856165E+07, 2.432208311923999E+07,
2461582.500000000, A.D. 2027-Jun-26 00:00:00.0000, -4.655435943458823E+08, -5.640181458056534E+07, 2.416264520350183E+07,
2461589.500000000, A.D. 2027-Jul-03 00:00:00.0000, -4.647596593632315E+08, -6.610867226216886E+07, 2.399187429073198E+07,
2461596.500000000, A.D. 2027-Jul-10 00:00:00.0000, -4.637585297286382E+08, -7.578450993030302E+07, 2.380988506143157E+07,
2461603.500000000, A.D. 2027-Jul-17 00:00:00.0000, -4.625413097410107E+08, -8.542491300828104E+07, 2.361679546284166E+07,
2461610.500000000, A.D. 2027-Jul-24 00:00:00.0000, -4.611091732212796E+08, -9.502550503823602E+07, 2.341272661227945E+07,
2461617.500000000, A.D. 2027-Jul-31 00:00:00.0000, -4.594633617867989E+08, -1.045819480868799E+08, 2.319780265523869E+07,
2461624.500000000, A.D. 2027-Aug-07 00:00:00.0000, -4.576051827995829E+08, -1.140899419354740E+08, 2.297215069088858E+07,
2461631.500000000, A.D. 2027-Aug-14 00:00:00.0000, -4.555360092887291E+08, -1.235452223103770E+08, 2.273590095530841E+07,
2461638.500000000, A.D. 2027-Aug-21 00:00:00.0000, -4.532572812295335E+08, -1.329435615217160E+08, 2.248918693078336E+07,
2461645.500000000, A.D. 2027-Aug-28 00:00:00.0000, -4.507705047494803E+08, -1.422807703090066E+08, 2.223214516485476E+07,
2461652.500000000, A.D. 2027-Sep-04 00:00:00.0000, -4.480772504414073E+08, -1.515526983922522E+08, 2.196491511187023E+07,
2461659.500000000, A.D. 2027-Sep-11 00:00:00.0000, -4.451791521771775E+08, -1.607552343912161E+08, 2.168763907063902E+07,
2461666.500000000, A.D. 2027-Sep-18 00:00:00.0000, -4.420779062872308E+08, -1.698843057648243E+08, 2.140046215242879E+07,
2461673.500000000, A.D. 2027-Sep-25 00:00:00.0000, -4.387752708757539E+08, -1.789358788496899E+08, 2.110353225157878E+07,
2461680.500000000, A.D. 2027-Oct-02 00:00:00.0000, -4.352730651943498E+08, -1.879059589715742E+08, 2.079700001371836E+07,
2461687.500000000, A.D. 2027-Oct-09 00:00:00.0000, -4.315731690496269E+08, -1.967905906364694E+08, 2.048101879878725E+07,
2461694.500000000, A.D. 2027-Oct-16 00:00:00.0000, -4.276775221804360E+08, -2.055858578590561E+08, 2.015574462826516E+07,
2461701.500000000, A.D. 2027-Oct-23 00:00:00.0000, -4.235881233449953E+08, -2.142878846369218E+08, 1.982133609209292E+07,
2461708.500000000, A.D. 2027-Oct-30 00:00:00.0000, -4.193070287436475E+08, -2.228928349620093E+08, 1.947795423066177E+07,
2461715.500000000, A.D. 2027-Nov-06 00:00:00.0000, -4.148363509403713E+08, -2.313969112421443E+08, 1.912576259063724E+07,
2461722.500000000, A.D. 2027-Nov-13 00:00:00.0000, -4.101782602675275E+08, -2.397963532101586E+08, 1.876492746685113E+07,
2461729.500000000, A.D. 2027-Nov-20 00:00:00.0000, -4.053349858118112E+08, -2.480874395084387E+08, 1.839561788538854E+07,
2461736.500000000, A.D. 2027-Nov-27 00:00:00.0000, -4.003088143637224E+08, -2.562664889855190E+08, 1.801800542184702E+07,
2461743.500000000, A.D. 2027-Dec-04 00:00:00.0000, -3.951020893524284E+08, -2.643298607911044E+08, 1.763226411506557E+07,
2461750.500000000, A.D. 2027-Dec-11 00:00:00.0000, -3.897172103142035E+08, -2.722739542344790E+08, 1.723857044793950E+07,
2461757.500000000, A.D. 2027-Dec-18 00:00:00.0000, -3.841566326177041E+08, -2.800952087473045E+08, 1.683710334228542E+07,
2461764.500000000, A.D. 2027-Dec-25 00:00:00.0000, -3.784228672931664E+08, -2.877901039550415E+08, 1.642804415361804E+07,
2461771.500000000, A.D. 2028-Jan-01 00:00:00.0000, -3.725184809234583E+08, -2.953551598440932E+08, 1.601157666328971E+07,
$$EOE